{
    "links": {
        "self": "http://www.neowsapp.com/rest/v1/neo/3835960?api_key=iIulBulltgU6a56xZRHN4H3l9WmuAYTsLGpBGhQ2"
    },
    "id": "3835960",
    "neo_reference_id": "3835960",
    "name": "(2018 VY)",
    "designation": "2018 VY",
    "nasa_jpl_url": "http://ssd.jpl.nasa.gov/sbdb.cgi?sstr=3835960",
    "absolute_magnitude_h": 20.5,
    "estimated_diameter": {
        "kilometers": {
            "estimated_diameter_min": 0.2111324448,
            "estimated_diameter_max": 0.4721064988
        },
        "meters": {
            "estimated_diameter_min": 211.1324447897,
            "estimated_diameter_max": 472.1064988055
        },
        "miles": {
            "estimated_diameter_min": 0.1311915784,
            "estimated_diameter_max": 0.2933532873
        },
        "feet": {
            "estimated_diameter_min": 692.6917701639,
            "estimated_diameter_max": 1548.9058855411
        }
    },
    "is_potentially_hazardous_asteroid": false,
    "close_approach_data": [
        {
            "close_approach_date": "2009-10-22",
            "close_approach_date_full": "2009-Oct-22 17:37",
            "epoch_date_close_approach": 1256233020000,
            "relative_velocity": {
                "kilometers_per_second": "23.1706651167",
                "kilometers_per_hour": "83414.3944200397",
                "miles_per_hour": "51830.4607994963"
            },
            "miss_distance": {
                "astronomical": "0.2491578778",
                "lunar": "96.9224144642",
                "kilometers": "37273487.812600286",
                "miles": "23160671.3521485068"
            },
            "orbiting_body": "Earth"
        },
        {
            "close_approach_date": "2018-10-27",
            "close_approach_date_full": "2018-Oct-27 02:48",
            "epoch_date_close_approach": 1540608480000,
            "relative_velocity": {
                "kilometers_per_second": "23.9939938466",
                "kilometers_per_hour": "86378.3778477722",
                "miles_per_hour": "53672.1648354671"
            },
            "miss_distance": {
                "astronomical": "0.1381960214",
                "lunar": "53.7582523246",
                "kilometers": "20673830.443914418",
                "miles": "12846122.5552302484"
            },
            "orbiting_body": "Earth"
        },
        {
            "close_approach_date": "2027-10-31",
            "close_approach_date_full": "2027-Oct-31 11:36",
            "epoch_date_close_approach": 1824982560000,
            "relative_velocity": {
                "kilometers_per_second": "25.2728079571",
                "kilometers_per_hour": "90982.1086455179",
                "miles_per_hour": "56532.7441192108"
            },
            "miss_distance": {
                "astronomical": "0.1329347126",
                "lunar": "51.7116032014",
                "kilometers": "19886749.854022162",
                "miles": "12357053.3551113556"
            },
            "orbiting_body": "Earth"
        }
    ],
    "orbital_data": {
        "orbit_id": "9",
        "orbit_determination_date": "2019-01-09 06:59:53",
        "first_observation_date": "2018-11-01",
        "last_observation_date": "2018-12-03",
        "data_arc_in_days": 32,
        "observations_used": 92,
        "orbit_uncertainty": "7",
        "minimum_orbit_intersection": ".117821",
        "jupiter_tisserand_invariant": "3.779",
        "epoch_osculation": "2459000.5",
        "eccentricity": ".4154825329675337",
        "semi_major_axis": "1.719853757832869",
        "inclination": "43.91861915274642",
        "ascending_node_longitude": "37.93006574021629",
        "orbital_period": "823.8264024558845",
        "perihelion_distance": "1.005284562194737",
        "perihelion_argument": "310.9953886321422",
        "aphelion_distance": "2.434422953471",
        "perihelion_time": "2459198.254725055613",
        "mean_anomaly": "273.5840987764011",
        "mean_motion": ".4369852664673221",
        "equinox": "J2000",
        "orbit_class": {
            "orbit_class_type": "APO",
            "orbit_class_description": "Near-Earth asteroid orbits which cross the Earth’s orbit similar to that of 1862 Apollo",
            "orbit_class_range": "a (semi-major axis) > 1.0 AU; q (perihelion) < 1.017 AU"
        }
    },
    "is_sentry_object": false
}